[{"OBJECT_NAME":"STARLINK-1559","OBJECT_ID":"2020-055BC","EPOCH":"2026-03-09T05:36:23.522976","MEAN_MOTION":15.29461733,"ECCENTRICITY":0.0004229,"INCLINATION":53.0254,"RA_OF_ASC_NODE":76.0659,"ARG_OF_PERICENTER":33.971,"MEAN_ANOMALY":326.1559,"EPHEMERIS_TYPE":0,"CLASSIFICATION_TYPE":"U","NORAD_CAT_ID":46077,"ELEMENT_SET_NO":999,"REV_AT_EPOCH":30951,"BSTAR":0.0014778793,"MEAN_MOTION_DOT":0.00042685,"MEAN_MOTION_DDOT":0},{"OBJECT_NAME":"STARLINK-35130","OBJECT_ID":"2025-216G","EPOCH":"2026-03-09T22:33:43.571232","MEAN_MOTION":15.30212667,"ECCENTRICITY":0.00010281,"INCLINATION":53.1597,"RA_OF_ASC_NODE":331.6083,"ARG_OF_PERICENTER":80.1443,"MEAN_ANOMALY":279.9674,"EPHEMERIS_TYPE":0,"CLASSIFICATION_TYPE":"U","NORAD_CAT_ID":65740,"ELEMENT_SET_NO":999,"REV_AT_EPOCH":2663,"BSTAR":0.00087187557,"MEAN_MOTION_DOT":0.00025562,"MEAN_MOTION_DDOT":0}]
